{
  "type": "FeatureCollection",
  "features": [
    {
      "type": "Feature",
      "properties": {
        "norad_id": 40228,
        "name": "COSMOS 2251 DEB",
        "group": "cosmos-2251-debris",
        "lat": 32.46500681729655,
        "lon": 55.500793905442094,
        "alt_km": 769.1004670029206,
        "timestamp": "2025-12-20T14:38:02.367369+00:00",
        "meta_object_name": "COSMOS 2251 DEB",
        "meta_object_id": "1993-036BVH",
        "meta_epoch": "2025-12-18T11:07:40.986048",
        "meta_mean_motion": 14.41005465,
        "meta_eccentricity": 0.00241854,
        "meta_inclination": 74.0545,
        "meta_ra_of_asc_node": 249.9467,
        "meta_arg_of_pericenter": 310.566,
        "meta_mean_anomaly": 226.9406,
        "meta_ephemeris_type": 0,
        "meta_classification_type": "U",
        "meta_norad_cat_id": 40228,
        "meta_element_set_no": 999,
        "meta_rev_at_epoch": 59003,
        "meta_bstar": 0.00024280039,
        "meta_mean_motion_dot": 7.57e-06,
        "meta_mean_motion_ddot": 0,
        "tle_line1": "1 40228U 93036BVH 25352.46366882  .00000757  00000+0  24280-3 0  9994",
        "tle_line2": "2 40228  74.0545 249.9467 0024185 310.5660 226.9406 14.41005465590031"
      },
      "geometry": {
        "type": "Point",
        "coordinates": [
          55.500793905442094,
          32.46500681729655
        ]
      }
    },
    {
      "type": "Feature",
      "properties": {
        "norad_id": 40230,
        "name": "COSMOS 2251 DEB",
        "group": "cosmos-2251-debris",
        "lat": -4.481148042046832,
        "lon": 33.41851470926106,
        "alt_km": 729.7028024837728,
        "timestamp": "2025-12-20T14:38:02.367391+00:00",
        "meta_object_name": "COSMOS 2251 DEB",
        "meta_object_id": "1993-036BVK",
        "meta_epoch": "2025-12-19T21:16:34.387104",
        "meta_mean_motion": 14.49353106,
        "meta_eccentricity": 0.0019047,
        "meta_inclination": 74.0433,
        "meta_ra_of_asc_node": 213.4892,
        "meta_arg_of_pericenter": 270.9127,
        "meta_mean_anomaly": 101.7525,
        "meta_ephemeris_type": 0,
        "meta_classification_type": "U",
        "meta_norad_cat_id": 40230,
        "meta_element_set_no": 999,
        "meta_rev_at_epoch": 59075,
        "meta_bstar": 0.00042074,
        "meta_mean_motion_dot": 1.584e-05,
        "meta_mean_motion_ddot": 0,
        "tle_line1": "1 40230U 93036BVK 25353.88650911  .00001584  00000+0  42074-3 0  9993",
        "tle_line2": "2 40230  74.0433 213.4892 0019047 270.9127 101.7525 14.49353106590753"
      },
      "geometry": {
        "type": "Point",
        "coordinates": [
          33.41851470926106,
          -4.481148042046832
        ]
      }
    },
    {
      "type": "Feature",
      "properties": {
        "norad_id": 40233,
        "name": "COSMOS 2251 DEB",
        "group": "cosmos-2251-debris",
        "lat": -73.70185218226088,
        "lon": -11.828130692826225,
        "alt_km": 713.6022216232241,
        "timestamp": "2025-12-20T14:38:02.367402+00:00",
        "meta_object_name": "COSMOS 2251 DEB",
        "meta_object_id": "1993-036BVN",
        "meta_epoch": "2025-12-16T00:45:52.214112",
        "meta_mean_motion": 14.58458772,
        "meta_eccentricity": 0.0044987,
        "meta_inclination": 73.9406,
        "meta_ra_of_asc_node": 96.8035,
        "meta_arg_of_pericenter": 171.0622,
        "meta_mean_anomaly": 189.1354,
        "meta_ephemeris_type": 0,
        "meta_classification_type": "U",
        "meta_norad_cat_id": 40233,
        "meta_element_set_no": 999,
        "meta_rev_at_epoch": 59185,
        "meta_bstar": 0.00091306486,
        "meta_mean_motion_dot": 4.268e-05,
        "meta_mean_motion_ddot": 0,
        "tle_line1": "1 40233U 93036BVN 25350.03185433  .00004268  00000+0  91306-3 0  9996",
        "tle_line2": "2 40233  73.9406  96.8035 0044987 171.0622 189.1354 14.58458772591855"
      },
      "geometry": {
        "type": "Point",
        "coordinates": [
          -11.828130692826225,
          -73.70185218226088
        ]
      }
    },
    {
      "type": "Feature",
      "properties": {
        "norad_id": 40236,
        "name": "COSMOS 2251 DEB",
        "group": "cosmos-2251-debris",
        "lat": 40.45325384509029,
        "lon": -63.25069735021818,
        "alt_km": 1389.1199639734223,
        "timestamp": "2025-12-20T14:38:02.367412+00:00",
        "meta_object_name": "COSMOS 2251 DEB",
        "meta_object_id": "1993-036BVR",
        "meta_epoch": "2025-12-07T17:52:23.026080",
        "meta_mean_motion": 13.24639967,
        "meta_eccentricity": 0.05366128,
        "meta_inclination": 73.5349,
        "meta_ra_of_asc_node": 151.6266,
        "meta_arg_of_pericenter": 32.3576,
        "meta_mean_anomaly": 330.9258,
        "meta_ephemeris_type": 0,
        "meta_classification_type": "U",
        "meta_norad_cat_id": 40236,
        "meta_element_set_no": 999,
        "meta_rev_at_epoch": 53558,
        "meta_bstar": 0.0015786255,
        "meta_mean_motion_dot": 1.455e-05,
        "meta_mean_motion_ddot": 0,
        "tle_line1": "1 40236U 93036BVR 25341.74471095  .00001455  00000+0  15786-2 0  9991",
        "tle_line2": "2 40236  73.5349 151.6266 0536612  32.3576 330.9258 13.24639967535580"
      },
      "geometry": {
        "type": "Point",
        "coordinates": [
          -63.25069735021818,
          40.45325384509029
        ]
      }
    },
    {
      "type": "Feature",
      "properties": {
        "norad_id": 40238,
        "name": "COSMOS 2251 DEB",
        "group": "cosmos-2251-debris",
        "lat": -53.18727313924151,
        "lon": -105.92542436667225,
        "alt_km": 1505.6078884170875,
        "timestamp": "2025-12-20T14:38:02.367429+00:00",
        "meta_object_name": "COSMOS 2251 DEB",
        "meta_object_id": "1993-036BVT",
        "meta_epoch": "2025-12-13T22:00:17.688960",
        "meta_mean_motion": 13.25118761,
        "meta_eccentricity": 0.05494159,
        "meta_inclination": 73.9889,
        "meta_ra_of_asc_node": 61.7905,
        "meta_arg_of_pericenter": 33.3831,
        "meta_mean_anomaly": 330.0665,
        "meta_ephemeris_type": 0,
        "meta_classification_type": "U",
        "meta_norad_cat_id": 40238,
        "meta_element_set_no": 999,
        "meta_rev_at_epoch": 54052,
        "meta_bstar": 0.0015955991,
        "meta_mean_motion_dot": 1.546e-05,
        "meta_mean_motion_ddot": 0,
        "tle_line1": "1 40238U 93036BVT 25347.91687140  .00001546  00000+0  15956-2 0  9998",
        "tle_line2": "2 40238  73.9889  61.7905 0549415  33.3831 330.0665 13.25118761540524"
      },
      "geometry": {
        "type": "Point",
        "coordinates": [
          -105.92542436667225,
          -53.18727313924151
        ]
      }
    },
    {
      "type": "Feature",
      "properties": {
        "norad_id": 40239,
        "name": "COSMOS 2251 DEB",
        "group": "cosmos-2251-debris",
        "lat": -36.06182155661284,
        "lon": -111.26924476946552,
        "alt_km": 651.911214825529,
        "timestamp": "2025-12-20T14:38:02.367443+00:00",
        "meta_object_name": "COSMOS 2251 DEB",
        "meta_object_id": "1993-036BVU",
        "meta_epoch": "2025-12-18T12:43:44.063040",
        "meta_mean_motion": 14.62020118,
        "meta_eccentricity": 0.00852863,
        "meta_inclination": 74.0322,
        "meta_ra_of_asc_node": 264.7457,
        "meta_arg_of_pericenter": 14.7295,
        "meta_mean_anomaly": 168.4785,
        "meta_ephemeris_type": 0,
        "meta_classification_type": "U",
        "meta_norad_cat_id": 40239,
        "meta_element_set_no": 999,
        "meta_rev_at_epoch": 59695,
        "meta_bstar": 0.00032567275,
        "meta_mean_motion_dot": 1.688e-05,
        "meta_mean_motion_ddot": 0,
        "tle_line1": "1 40239U 93036BVU 25352.53037110  .00001688  00000+0  32567-3 0  9994",
        "tle_line2": "2 40239  74.0322 264.7457 0085286  14.7295 168.4785 14.62020118596958"
      },
      "geometry": {
        "type": "Point",
        "coordinates": [
          -111.26924476946552,
          -36.06182155661284
        ]
      }
    },
    {
      "type": "Feature",
      "properties": {
        "norad_id": 40792,
        "name": "COSMOS 2251 DEB",
        "group": "cosmos-2251-debris",
        "lat": -67.66244885606335,
        "lon": -11.850255592996819,
        "alt_km": 684.8308131895437,
        "timestamp": "2025-12-20T14:38:02.367453+00:00",
        "meta_object_name": "COSMOS 2251 DEB",
        "meta_object_id": "1993-036BVV",
        "meta_epoch": "2025-12-13T21:48:53.616096",
        "meta_mean_motion": 14.67590278,
        "meta_eccentricity": 0.00153774,
        "meta_inclination": 74.0462,
        "meta_ra_of_asc_node": 45.2013,
        "meta_arg_of_pericenter": 149.8992,
        "meta_mean_anomaly": 27.0176,
        "meta_ephemeris_type": 0,
        "meta_classification_type": "U",
        "meta_norad_cat_id": 40792,
        "meta_element_set_no": 999,
        "meta_rev_at_epoch": 63201,
        "meta_bstar": 0.0011407186,
        "meta_mean_motion_dot": 6.465e-05,
        "meta_mean_motion_ddot": 0,
        "tle_line1": "1 40792U 93036BVV 25347.90895389  .00006465  00000+0  11407-2 0  9990",
        "tle_line2": "2 40792  74.0462  45.2013 0015377 149.8992  27.0176 14.67590278632011"
      },
      "geometry": {
        "type": "Point",
        "coordinates": [
          -11.850255592996819,
          -67.66244885606335
        ]
      }
    }
  ]
}